FLOCK 4G-5              
1 62663U 25009BG  26068.45638436  .00011278  00000+0  40688-3 0  9997
2 62663  97.4058 151.2478 0002094 314.5072  45.5996 15.28679529 63699
STARLINK-35994          
1 66818U 25278AD  26068.19275623  .00035072  00000+0  12778-2 0  9993
2 66818  43.0009 117.1212 0001303 187.8915 172.1916 15.27583304 15133
